[Satellite]
VERSION=1.1
NAME=STARLINK-1219
NICKNAME=STARLINK-1219
TLE1=1 45210U 20012AJ  20078.25001157  .00426638  00000-0  42279-2 0  9990
TLE2=2 45210  52.9999 121.2902 0006934 266.8145 125.1004 15.63904658  5014
STATUS=0
